IRIDIUM 36              
1 24967U 97056C   24156.44879577  .00000850  00000+0  28138-3 0  9991
2 24967  86.3954 331.6442 0002209  94.1075 266.0375 14.36826987397964
IRIDIUM 39              
1 25042U 97069D   24156.36258869  .00001038  00000+0  27368-3 0  9999
2 25042  86.3931  13.0420 0020012 123.4240 236.8881 14.47979213394263
IRIDIUM 38              
1 25043U 97069E   24156.39065904  .00000684  00000+0  22293-3 0  9997
2 25043  86.3980  32.0407 0000471 114.0433 246.0814 14.37281468391679
IRIDIUM 42              
1 25077U 97077A   24156.42833389  .00000707  00000+0  23893-3 0  9990
2 25077  86.3984  37.7294 0001566  81.5675 278.5699 14.35581617386984
IRIDIUM 44              
1 25078U 97077B   24156.35332011  .00000778  00000+0  24370-3 0  9998
2 25078  86.3974  20.7044 0002522 131.9170 228.2244 14.39417111389333
IRIDIUM 45              
1 25104U 97082A   24156.16931490  .00011996  00000+0  67579-3 0  9991
2 25104  86.3768 228.3560 0157216 286.6723  71.7303 15.03077871394909
IRIDIUM 24              
1 25105U 97082B   24156.52688268  .00000921  00000+0  27933-3 0  9990
2 25105  86.3928 240.2265 0009605 238.8214 121.2045 14.41201354388807
IRIDIUM 51              
1 25262U 98018A   24156.46462767  .00020360  00000+0  94979-3 0  9994
2 25262  86.3979 238.0753 0144342 229.0596 129.8077 15.10841491389491
